ONEWEB-0687             
1 61595U 24188B   25060.14913958  .00005624  00000+0  67624-3 0  9996
2 61595  86.5734 113.8694 0006833 110.5165 249.6793 14.83772372 20806
ONEWEB-0688             
1 61596U 24188C   25060.15238453  .00005908  00000+0  71046-3 0  9996
2 61596  86.5743 113.8928 0006331 110.8894 249.3008 14.83774934 20578
ONEWEB-0689             
1 61597U 24188D   25060.25002315 -.00998319  00000+0 -78801+0 0  9995
2 61597  87.1969 117.2203 0004322 112.9038 316.6116 13.94907398 20426
ONEWEB-0690             
1 61598U 24188E   25059.91668981 -.00783305  00000+0 -40744+0 0  9996
2 61598  87.3001 117.2390 0009907 116.4496 328.7800 14.17720384 20411
ONEWEB-0691             
1 61599U 24188F   25060.16668981 -.00004432  00000+0 -31710-2 0  9999
2 61599  87.2279 117.2673 0007485 110.7390  29.6457 13.97431909 20572
ONEWEB-0692             
1 61600U 24188G   25060.25002315 -.00048978  00000+0 -34750-1 0  9994
2 61600  87.2111 117.2543 0003920 125.8921 175.4501 13.98048786 20526
ONEWEB-0693             
1 61601U 24188H   25059.61347198  .00005992  00000+0  72228-3 0  9995
2 61601  86.5664 113.9975 0004823 124.0412 236.1270 14.83689999 20657
ONEWEB-0695             
1 61602U 24188J   25060.25002315 -.00289119  00000+0 -21547+0 0  9998
2 61602  87.2175 117.2708 0004889 108.9331  95.9049 13.97036496 20542
