<?xml version="1.0" encoding="UTF-8"?>
<ndm xmlns:xsi="http://www.w3.org/2001/XMLSchema-instance" xsi:noNamespaceSchemaLocation="https://sanaregistry.org/r/ndmxml_unqualified/ndmxml-2.0.0-master-2.0.xsd">
<omm id="CCSDS_OMM_VERS" version="2.0">
<header><CREATION_DATE/><ORIGINATOR/></header><body><segment><metadata><OBJECT_NAME>ONEWEB-0687</OBJECT_NAME><OBJECT_ID>2024-188B</OBJECT_ID><CENTER_NAME>EARTH</CENTER_NAME><REF_FRAME>TEME</REF_FRAME><TIME_SYSTEM>UTC</TIME_SYSTEM><MEAN_ELEMENT_THEORY>SGP4</MEAN_ELEMENT_THEORY></metadata><data><meanElements><EPOCH>2025-03-01T03:34:45.659712</EPOCH><MEAN_MOTION>14.83772372</MEAN_MOTION><ECCENTRICITY>.0006833</ECCENTRICITY><INCLINATION>86.5734</INCLINATION><RA_OF_ASC_NODE>113.8694</RA_OF_ASC_NODE><ARG_OF_PERICENTER>110.5165</ARG_OF_PERICENTER><MEAN_ANOMALY>249.6793</MEAN_ANOMALY></meanElements><tleParameters><EPHEMERIS_TYPE>0</EPHEMERIS_TYPE><CLASSIFICATION_TYPE>U</CLASSIFICATION_TYPE><NORAD_CAT_ID>61595</NORAD_CAT_ID><ELEMENT_SET_NO>999</ELEMENT_SET_NO><REV_AT_EPOCH>2080</REV_AT_EPOCH><BSTAR>.67624E-3</BSTAR><MEAN_MOTION_DOT>.5624E-4</MEAN_MOTION_DOT><MEAN_MOTION_DDOT>0</MEAN_MOTION_DDOT></tleParameters></data></segment></body></omm>
<omm id="CCSDS_OMM_VERS" version="2.0">
<header><CREATION_DATE/><ORIGINATOR/></header><body><segment><metadata><OBJECT_NAME>ONEWEB-0688</OBJECT_NAME><OBJECT_ID>2024-188C</OBJECT_ID><CENTER_NAME>EARTH</CENTER_NAME><REF_FRAME>TEME</REF_FRAME><TIME_SYSTEM>UTC</TIME_SYSTEM><MEAN_ELEMENT_THEORY>SGP4</MEAN_ELEMENT_THEORY></metadata><data><meanElements><EPOCH>2025-03-01T03:39:26.023392</EPOCH><MEAN_MOTION>14.83774934</MEAN_MOTION><ECCENTRICITY>.0006331</ECCENTRICITY><INCLINATION>86.5743</INCLINATION><RA_OF_ASC_NODE>113.8928</RA_OF_ASC_NODE><ARG_OF_PERICENTER>110.8894</ARG_OF_PERICENTER><MEAN_ANOMALY>249.3008</MEAN_ANOMALY></meanElements><tleParameters><EPHEMERIS_TYPE>0</EPHEMERIS_TYPE><CLASSIFICATION_TYPE>U</CLASSIFICATION_TYPE><NORAD_CAT_ID>61596</NORAD_CAT_ID><ELEMENT_SET_NO>999</ELEMENT_SET_NO><REV_AT_EPOCH>2057</REV_AT_EPOCH><BSTAR>.71046E-3</BSTAR><MEAN_MOTION_DOT>.5908E-4</MEAN_MOTION_DOT><MEAN_MOTION_DDOT>0</MEAN_MOTION_DDOT></tleParameters></data></segment></body></omm>
<omm id="CCSDS_OMM_VERS" version="2.0">
<header><CREATION_DATE/><ORIGINATOR/></header><body><segment><metadata><OBJECT_NAME>ONEWEB-0689</OBJECT_NAME><OBJECT_ID>2024-188D</OBJECT_ID><CENTER_NAME>EARTH</CENTER_NAME><REF_FRAME>TEME</REF_FRAME><TIME_SYSTEM>UTC</TIME_SYSTEM><MEAN_ELEMENT_THEORY>SGP4</MEAN_ELEMENT_THEORY></metadata><data><meanElements><EPOCH>2025-03-01T06:00:02.000160</EPOCH><MEAN_MOTION>13.94907398</MEAN_MOTION><ECCENTRICITY>.0004322</ECCENTRICITY><INCLINATION>87.1969</INCLINATION><RA_OF_ASC_NODE>117.2203</RA_OF_ASC_NODE><ARG_OF_PERICENTER>112.9038</ARG_OF_PERICENTER><MEAN_ANOMALY>316.6116</MEAN_ANOMALY></meanElements><tleParameters><EPHEMERIS_TYPE>0</EPHEMERIS_TYPE><CLASSIFICATION_TYPE>U</CLASSIFICATION_TYPE><NORAD_CAT_ID>61597</NORAD_CAT_ID><ELEMENT_SET_NO>999</ELEMENT_SET_NO><REV_AT_EPOCH>2042</REV_AT_EPOCH><BSTAR>-.78801E+0</BSTAR><MEAN_MOTION_DOT>-.998319E-2</MEAN_MOTION_DOT><MEAN_MOTION_DDOT>0</MEAN_MOTION_DDOT></tleParameters></data></segment></body></omm>
<omm id="CCSDS_OMM_VERS" version="2.0">
<header><CREATION_DATE/><ORIGINATOR/></header><body><segment><metadata><OBJECT_NAME>ONEWEB-0690</OBJECT_NAME><OBJECT_ID>2024-188E</OBJECT_ID><CENTER_NAME>EARTH</CENTER_NAME><REF_FRAME>TEME</REF_FRAME><TIME_SYSTEM>UTC</TIME_SYSTEM><MEAN_ELEMENT_THEORY>SGP4</MEAN_ELEMENT_THEORY></metadata><data><meanElements><EPOCH>2025-02-28T22:00:01.999584</EPOCH><MEAN_MOTION>14.17720384</MEAN_MOTION><ECCENTRICITY>.0009907</ECCENTRICITY><INCLINATION>87.3001</INCLINATION><RA_OF_ASC_NODE>117.2390</RA_OF_ASC_NODE><ARG_OF_PERICENTER>116.4496</ARG_OF_PERICENTER><MEAN_ANOMALY>328.7800</MEAN_ANOMALY></meanElements><tleParameters><EPHEMERIS_TYPE>0</EPHEMERIS_TYPE><CLASSIFICATION_TYPE>U</CLASSIFICATION_TYPE><NORAD_CAT_ID>61598</NORAD_CAT_ID><ELEMENT_SET_NO>999</ELEMENT_SET_NO><REV_AT_EPOCH>2041</REV_AT_EPOCH><BSTAR>-.40744E+0</BSTAR><MEAN_MOTION_DOT>-.783305E-2</MEAN_MOTION_DOT><MEAN_MOTION_DDOT>0</MEAN_MOTION_DDOT></tleParameters></data></segment></body></omm>
<omm id="CCSDS_OMM_VERS" version="2.0">
<header><CREATION_DATE/><ORIGINATOR/></header><body><segment><metadata><OBJECT_NAME>ONEWEB-0691</OBJECT_NAME><OBJECT_ID>2024-188F</OBJECT_ID><CENTER_NAME>EARTH</CENTER_NAME><REF_FRAME>TEME</REF_FRAME><TIME_SYSTEM>UTC</TIME_SYSTEM><MEAN_ELEMENT_THEORY>SGP4</MEAN_ELEMENT_THEORY></metadata><data><meanElements><EPOCH>2025-03-01T04:00:01.999584</EPOCH><MEAN_MOTION>13.97431909</MEAN_MOTION><ECCENTRICITY>.0007485</ECCENTRICITY><INCLINATION>87.2279</INCLINATION><RA_OF_ASC_NODE>117.2673</RA_OF_ASC_NODE><ARG_OF_PERICENTER>110.7390</ARG_OF_PERICENTER><MEAN_ANOMALY>29.6457</MEAN_ANOMALY></meanElements><tleParameters><EPHEMERIS_TYPE>0</EPHEMERIS_TYPE><CLASSIFICATION_TYPE>U</CLASSIFICATION_TYPE><NORAD_CAT_ID>61599</NORAD_CAT_ID><ELEMENT_SET_NO>999</ELEMENT_SET_NO><REV_AT_EPOCH>2057</REV_AT_EPOCH><BSTAR>-.3171E-2</BSTAR><MEAN_MOTION_DOT>-.4432E-4</MEAN_MOTION_DOT><MEAN_MOTION_DDOT>0</MEAN_MOTION_DDOT></tleParameters></data></segment></body></omm>
<omm id="CCSDS_OMM_VERS" version="2.0">
<header><CREATION_DATE/><ORIGINATOR/></header><body><segment><metadata><OBJECT_NAME>ONEWEB-0692</OBJECT_NAME><OBJECT_ID>2024-188G</OBJECT_ID><CENTER_NAME>EARTH</CENTER_NAME><REF_FRAME>TEME</REF_FRAME><TIME_SYSTEM>UTC</TIME_SYSTEM><MEAN_ELEMENT_THEORY>SGP4</MEAN_ELEMENT_THEORY></metadata><data><meanElements><EPOCH>2025-03-01T06:00:02.000160</EPOCH><MEAN_MOTION>13.98048786</MEAN_MOTION><ECCENTRICITY>.000392</ECCENTRICITY><INCLINATION>87.2111</INCLINATION><RA_OF_ASC_NODE>117.2543</RA_OF_ASC_NODE><ARG_OF_PERICENTER>125.8921</ARG_OF_PERICENTER><MEAN_ANOMALY>175.4501</MEAN_ANOMALY></meanElements><tleParameters><EPHEMERIS_TYPE>0</EPHEMERIS_TYPE><CLASSIFICATION_TYPE>U</CLASSIFICATION_TYPE><NORAD_CAT_ID>61600</NORAD_CAT_ID><ELEMENT_SET_NO>999</ELEMENT_SET_NO><REV_AT_EPOCH>2052</REV_AT_EPOCH><BSTAR>-.3475E-1</BSTAR><MEAN_MOTION_DOT>-.48978E-3</MEAN_MOTION_DOT><MEAN_MOTION_DDOT>0</MEAN_MOTION_DDOT></tleParameters></data></segment></body></omm>
<omm id="CCSDS_OMM_VERS" version="2.0">
<header><CREATION_DATE/><ORIGINATOR/></header><body><segment><metadata><OBJECT_NAME>ONEWEB-0693</OBJECT_NAME><OBJECT_ID>2024-188H</OBJECT_ID><CENTER_NAME>EARTH</CENTER_NAME><REF_FRAME>TEME</REF_FRAME><TIME_SYSTEM>UTC</TIME_SYSTEM><MEAN_ELEMENT_THEORY>SGP4</MEAN_ELEMENT_THEORY></metadata><data><meanElements><EPOCH>2025-02-28T14:43:23.979072</EPOCH><MEAN_MOTION>14.83689999</MEAN_MOTION><ECCENTRICITY>.0004823</ECCENTRICITY><INCLINATION>86.5664</INCLINATION><RA_OF_ASC_NODE>113.9975</RA_OF_ASC_NODE><ARG_OF_PERICENTER>124.0412</ARG_OF_PERICENTER><MEAN_ANOMALY>236.1270</MEAN_ANOMALY></meanElements><tleParameters><EPHEMERIS_TYPE>0</EPHEMERIS_TYPE><CLASSIFICATION_TYPE>U</CLASSIFICATION_TYPE><NORAD_CAT_ID>61601</NORAD_CAT_ID><ELEMENT_SET_NO>999</ELEMENT_SET_NO><REV_AT_EPOCH>2065</REV_AT_EPOCH><BSTAR>.72228E-3</BSTAR><MEAN_MOTION_DOT>.5992E-4</MEAN_MOTION_DOT><MEAN_MOTION_DDOT>0</MEAN_MOTION_DDOT></tleParameters></data></segment></body></omm>
<omm id="CCSDS_OMM_VERS" version="2.0">
<header><CREATION_DATE/><ORIGINATOR/></header><body><segment><metadata><OBJECT_NAME>ONEWEB-0695</OBJECT_NAME><OBJECT_ID>2024-188J</OBJECT_ID><CENTER_NAME>EARTH</CENTER_NAME><REF_FRAME>TEME</REF_FRAME><TIME_SYSTEM>UTC</TIME_SYSTEM><MEAN_ELEMENT_THEORY>SGP4</MEAN_ELEMENT_THEORY></metadata><data><meanElements><EPOCH>2025-03-01T06:00:02.000160</EPOCH><MEAN_MOTION>13.97036496</MEAN_MOTION><ECCENTRICITY>.0004889</ECCENTRICITY><INCLINATION>87.2175</INCLINATION><RA_OF_ASC_NODE>117.2708</RA_OF_ASC_NODE><ARG_OF_PERICENTER>108.9331</ARG_OF_PERICENTER><MEAN_ANOMALY>95.9049</MEAN_ANOMALY></meanElements><tleParameters><EPHEMERIS_TYPE>0</EPHEMERIS_TYPE><CLASSIFICATION_TYPE>U</CLASSIFICATION_TYPE><NORAD_CAT_ID>61602</NORAD_CAT_ID><ELEMENT_SET_NO>999</ELEMENT_SET_NO><REV_AT_EPOCH>2054</REV_AT_EPOCH><BSTAR>-.21547E+0</BSTAR><MEAN_MOTION_DOT>-.289119E-2</MEAN_MOTION_DOT><MEAN_MOTION_DDOT>0</MEAN_MOTION_DDOT></tleParameters></data></segment></body></omm>

</ndm>
